satname,norad_id,inclination_deg,eccentricity,mean_motion_rev_per_day,perigee_km,apogee_km,l1,l2
STARLINK-1008,44714,53.1516,0.0003061,15.4831493,419.5737723672564,423.7366051452127,1 44714U 19074B   26154.24769802  .00091145  00000+0  16852-2 0  9990,2 44714  53.1516 135.3804 0003061  72.2548 287.8794 15.48314930362054
STARLINK-1012,44718,53.1561,0.0002755,15.48650785,418.7989699946638,422.54511377674316,1 44718U 19074F   26154.82733359  .00075837  00000+0  13900-2 0  9997,2 44718  53.1561 132.9078 0002755  71.0953 289.0354 15.48650785362136
STARLINK-1017,44723,53.0462,0.0005157,15.3096115,469.4102522139483,476.4764564914285,1 44723U 19074L   26154.24060429  .00043311  00000+0  14313-2 0  9991,2 44723  53.0462 134.5373 0005157  26.4996 333.6267 15.30961150362048
STARLINK-1020,44725,53.1575,0.0004293,15.53674994,403.09456229735224,408.91942833172834,1 44725U 19074N   26154.28406338  .00080640  00000+0  12345-2 0  9999,2 44725  53.1575 159.7277 0004293  48.2939 311.8439 15.53674994361698
STARLINK-1036,44741,53.0415,0.0003134,15.68633377,360.69678272447254,364.92200792506173,1 44741U 19074AE  26154.20418258  .00060566  00000+0  52368-3 0  9998,2 44741  53.0415 129.7734 0003134   1.2525 358.8498 15.68633377362105
STARLINK-1039,44744,53.059,0.0004292,15.28225348,478.17338004284375,484.06136399578463,1 44744U 19074AH  26154.32725271  .00038939  00000+0  14020-2 0  9991,2 44744  53.0590 179.4269 0004292  25.2717 334.8491 15.28225348361424
STARLINK-1042,44747,53.0427,0.0003262,15.53904068,403.12747037032386,407.55301092212085,1 44747U 19074AL  26153.85156822  .00025683  00000+0  39760-3 0  9992,2 44747  53.0427  44.8717 0003262  86.3224 273.8158 15.53904068363296
STARLINK-1043,44748,53.0477,0.0001241,15.62122113,380.68935026351755,382.3670991722929,1 44748U 19074AM  26154.21952889  .00041228  00000+0  46506-3 0  9990,2 44748  53.0477 139.7275 0001241  66.3508 293.7636 15.62122113361971
STARLINK-1046,44751,53.0463,0.0007294,15.5434048,399.123508351232,409.0173925799709,1 44751U 19074AQ  26154.29390509  .00046198  00000+0  69587-3 0  9992,2 44751  53.0463 160.6984 0007294  40.9689 319.1868 15.54340480361680
STARLINK-1047,44752,53.0687,0.0003762,15.34426062,460.05228458952115,465.19927450485375,1 44752U 19074AR  26153.15648461  .00011280  00000+0  34416-3 0  9997,2 44752  53.0687 110.8567 0003762  96.1032 264.0399 15.34426062362300
STARLINK-1048,44753,53.0439,0.0006924,15.66791871,363.41918885564974,372.761364388316,1 44753U 19074AS  26154.19166083  .00056489  00000+0  52651-3 0  9999,2 44753  53.0439 111.7690 0006924  42.5989 317.5562 15.66791871362351
STARLINK-1063,44768,53.1551,0.0002606,15.4834893,419.7836446327401,423.3276444390722,1 44768U 19074BH  26154.84125094  .00064270  00000+0  11935-2 0  9990,2 44768  53.1551 173.5717 0002606  37.4574 322.6616 15.48348930361580
STARLINK-1067,44771,53.042,0.0006721,15.73848058,343.3905884186315,352.4317423625498,1 44771U 19074BL  26154.20941267  .00084251  00000+0  58157-3 0  9991,2 44771  53.0420 143.7841 0006721  11.5022 348.6148 15.73848058361917
STARLINK-1068,44772,53.0416,0.0002306,15.74669787,344.0205179969835,347.12149212891836,1 44772U 19074BM  26154.85086082  .00081351  00000+0  54291-3 0  9991,2 44772  53.0416 114.2675 0002306 103.1304 256.9972 15.74669787362375
STARLINK-1114,44927,53.0413,0.000339,15.64866621,371.3335363050046,375.91122916649965,1 44927U 20001P   26154.84122846  .00047824  00000+0  48316-3 0  9991,2 44927  53.0413 271.0610 0003390 347.9619  12.1314 15.64866621353520
STARLINK-1123,44930,53.1452,0.0004751,15.5740365,391.9565031364318,398.3925037269928,1 44930U 20001S   26154.86157691  .00085687  00000+0  11424-2 0  9991,2 44930  53.1452 297.6931 0004751 291.9108  68.1399 15.57403650353166
STARLINK-1094,44941,53.1532,0.0005715,15.54102445,400.88653927549694,408.63939393732744,1 44941U 20001AD  26154.87549174  .00054824  00000+0  83114-3 0  9990,2 44941  53.1532 272.5382 0005715 322.5853  37.4760 15.54102445353524
STARLINK-1122,44949,53.1552,0.0004818,15.53655823,402.79417538644975,409.33143031647796,1 44949U 20001AM  26154.82175545  .00079166  00000+0  12131-2 0  9996,2 44949  53.1552 273.3984 0004818 320.6006  39.4654 15.53655823353507
STARLINK-1080,44961,53.0448,0.0002294,15.67211313,365.3392261486133,368.4338429462641,1 44961U 20001AZ  26154.47295889  .00050813  00000+0  46695-3 0  9996,2 44961  53.0448 233.3228 0002294  29.0113 331.1030 15.67211313354021
STARLINK-1090,44968,53.1491,0.0003861,15.50000284,414.1017429103631,419.3487355314892,1 44968U 20001BG  26154.86315463  .00068347  00000+0  11965-2 0  9999,2 44968  53.1491 260.8185 0003861 331.5725  28.5073 15.50000284353685
STARLINK-1132,45044,53.1492,0.0001971,15.54913188,401.0685480539305,403.7414377075247,1 45044U 20006A   26154.33728882  .00064435  00000+0  94649-3 0  9990,2 45044  53.1492 204.5294 0001971  27.5077 332.6038 15.54913188350205
STARLINK-1131,45047,53.156,0.0004814,15.51745445,408.361156671167,414.8983440984366,1 45047U 20006D   26154.47101939  .00072094  00000+0  11851-2 0  9999,2 45047  53.1560 236.6250 0004814 347.8154  12.2739 15.51745445349769
STARLINK-1134,45048,53.0245,0.0008366,15.57257424,389.93159760417075,401.2654118506798,1 45048U 20006E   26154.83335647  .00127128  00000+0  16904-2 0  9998,2 45048  53.0245 184.9621 0008366  44.7257 202.4940 15.57257424  5968
STARLINK-1156,45054,53.158,0.0004134,15.346958,458.9965615246665,464.6518414460543,1 45054U 20006L   26154.50262931  .00045968  00000+0  13503-2 0  9997,2 45054  53.1580 241.5506 0004134 340.1106  19.9735 15.34695800349698
STARLINK-1166,45060,53.0446,0.0005397,15.58814629,387.4332426981118,394.73994264404155,1 45060U 20006S   26154.79811231  .00084216  00000+0  10649-2 0  9995,2 45060  53.0446 218.1814 0005397 353.0539   7.0396 15.58814629350031
STARLINK-1169,45061,53.154,0.0004903,15.3790489,448.95679159656174,455.65472376474463,1 45061U 20006T   26154.54622860  .00048376  00000+0  12810-2 0  9996,2 45061  53.1540 240.0286 0004903 314.8720  45.1885 15.37904890349721
STARLINK-1171,45062,53.0385,0.0003202,15.7370498,346.1650269736783,350.4726492924183,1 45062U 20006U   26154.27811667  .00070148  00000+0  48920-3 0  9996,2 45062  53.0385 187.1081 0003202 351.1562   8.9400 15.73704980350428
STARLINK-1133,45064,53.1551,0.0005065,15.3466829,458.44146020938933,465.3704237095935,1 45064U 20006W   26154.47367594  .00044531  00000+0  13097-2 0  9998,2 45064  53.1551 218.4613 0005065 355.5522   4.5434 15.34668290350023
STARLINK-1167,45071,53.1553,0.000362,15.37036048,452.405997669508,457.35310165146257,1 45071U 20006AD  26154.48308353  .00046102  00000+0  12566-2 0  9991,2 45071  53.1553 217.5577 0003620 320.5298  39.5441 15.37036048350039
STARLINK-1168,45072,53.1564,0.0004269,15.3480062,458.59292566713066,464.4326186425951,1 45072U 20006AE  26154.45378379  .00044224  00000+0  12955-2 0  9999,2 45072  53.1564 218.7555 0004269 355.7919   4.3047 15.34800620350013
STARLINK-1172,45074,53.1535,0.0003858,15.37945295,449.55098526784695,454.82126259027063,1 45074U 20006AG  26153.33876924  .00053968  00000+0  14252-2 0  9993,2 45074  53.1535 222.3047 0003858 322.9679  37.1058 15.37945295349860
STARLINK-1153,45080,53.1549,0.0004756,15.37022991,451.66844614995625,458.16804830111687,1 45080U 20006AN  26154.46642577  .00045523  00000+0  12414-2 0  9996,2 45080  53.1549 217.5534 0004756 322.8426  37.2248 15.37022991350038
STARLINK-1151,45081,53.0471,0.000493,15.77306003,334.76608435275466,341.3882715322061,1 45081U 20006AP  26154.31949138  .00089937  00000+0  53351-3 0  9997,2 45081  53.0471 175.7085 0004930 358.7694   1.3313 15.77306003350585
STARLINK-1185,45087,53.1562,0.0005644,15.45468281,426.15995463230684,433.8449824644049,1 45087U 20006AV  26154.43709702  .00061056  00000+0  12527-2 0  9998,2 45087  53.1562 198.0663 0005644   0.7548 359.3467 15.45468281350306
STARLINK-1183,45088,53.1547,0.0004584,15.34571687,459.0573905670817,465.32860510909995,1 45088U 20006AW  26154.43292780  .00045359  00000+0  13379-2 0  9996,2 45088  53.1547 203.4637 0004584 359.6588   0.4411 15.34571687350221
STARLINK-1152,45096,53.0315,0.0003243,15.48272405,419.57448436904633,423.9849103389506,1 45096U 20006BE  26154.32696078  .00085455  00000+0  15838-2 0  9994,2 45096  53.0315 159.4204 0003243  59.8596 300.2732 15.48272405350814
STARLINK-1184,45098,53.0506,0.0004959,15.14103648,520.2785288740652,527.1237719516448,1 45098U 20006BG  26154.45009108  .00023200  00000+0  12715-2 0  9993,2 45098  53.0506 216.9070 0004959  23.0451 337.0763 15.14103648350015
STARLINK-1193,45100,53.0452,0.0004415,15.6741249,363.33170107369733,369.2870472220693,1 45100U 20006BJ  26154.30965378  .00052015  00000+0  47379-3 0  9992,2 45100  53.0452 171.9516 0004415 330.7266  29.3501 15.67412490350638
STARLINK-1143,45179,53.0341,0.0007904,15.88322376,301.702123435618,312.26996594466436,1 45179U 20012B   26154.83335647  .00170567  00000+0  59456-3 0  9995,2 45179  53.0341 261.1186 0007904 340.0094  16.4927 15.88322376  6043
STARLINK-1202,45183,53.1557,0.0002336,15.34268782,461.49516415950256,464.69138694424055,1 45183U 20012F   26153.79123996  .00037576  00000+0  11223-2 0  9997,2 45183  53.1557   3.2129 0002336 169.0772 191.0282 15.34268782347993
STARLINK-1216,45185,53.1573,0.0002402,15.34610441,460.43481708010495,463.7208562876476,1 45185U 20012H   26153.83646526  .00049783  00000+0  14649-2 0  9991,2 45185  53.1573   2.8682 0002402 158.7552 201.3551 15.34610441347949
STARLINK-1225,45187,53.1571,0.0001065,15.3456759,461.47667630064825,462.93366918344327,1 45187U 20012K   26154.22577718  .00046201  00000+0  13629-2 0  9992,2 45187  53.1571   1.5181 0001065 125.0790 235.0313 15.34567590348042
STARLINK-1230,45189,53.1591,0.0001972,15.34496496,461.0674916492244,463.7654059294264,1 45189U 20012M   26154.17138035  .00055965  00000+0  16501-2 0  9992,2 45189  53.1591   1.8302 0001972 154.2846 205.8255 15.34496496345264
